NORAD_CAT_ID,OBJECT_NAME,OBJECT_TYPE,EPOCH,MEAN_MOTION,ECCENTRICITY,INCLINATION,RA_OF_ASC_NODE,ARG_OF_PERICENTER,MEAN_ANOMALY,BSTAR,MEAN_MOTION_DOT,MEAN_MOTION_DDOT,TLE_LINE0,TLE_LINE1,TLE_LINE2,SEMIMAJOR_AXIS,PERIOD,APOGEE,PERIGEE,DECAYED
53886.0,STARLINK-5028,PAYLOAD,2023-10-21 02:40:58,15.08835639,0.0002008,53.2167,272.5208,123.5667,236.5518,-9.4483e-05,-1.791e-05,0.0,0 STARLINK-5028,1 53886U 22119A   23294.11179373 -.00001791  00000-0 -94483-4 0  9999,2 53886  53.2167 272.5208 0002008 123.5667 236.5518 15.08835639 59835,6917.894,95.438,541.148,538.37,0.0
53886.0,STARLINK-5028,PAYLOAD,2023-10-21 05:51:45,15.08832718,0.0001398,53.2173,271.9345,97.569,262.5461,-7.452e-05,-1.473e-05,0.0,0 STARLINK-5028,1 53886U 22119A   23294.24427775 -.00001473  00000-0 -74520-4 0  9992,2 53886  53.2173 271.9345 0001398  97.5690 262.5461 15.08832718 60275,6917.903,95.438,540.735,538.801,0.0
53886.0,STARLINK-5028,PAYLOAD,2023-10-21 15:24:04,15.08840495,0.0001401,53.218,270.1494,94.3841,265.7311,0.00014472,2.016e-05,0.0,0 STARLINK-5028,1 53886U 22119A   23294.64171647  .00002016  00000-0  14472-3 0  9991,2 53886  53.2180 270.1494 0001401  94.3841 265.7311 15.08840495 60334,6917.879,95.438,540.713,538.775,0.0
53886.0,STARLINK-5028,PAYLOAD,2023-10-22 02:31:46,15.08850002,0.00013,53.2174,268.0671,93.2248,266.8893,0.00043694,6.675e-05,0.0,0 STARLINK-5028,1 53886U 22119A   23295.10539493  .00006675  00000-0  43694-3 0  9993,2 53886  53.2174 268.0671 0001300  93.2248 266.8893 15.08850002 59988,6917.85,95.437,540.614,538.815,0.0
53886.0,STARLINK-5028,PAYLOAD,2023-10-22 07:17:55,15.08864147,0.0001406,53.2176,267.1771,99.5266,260.5885,0.00087133,0.00013616,0.0,0 STARLINK-5028,1 53886U 22119A   23295.30411200  .00013616  00000-0  87133-3 0  9999,2 53886  53.2176 267.1771 0001406  99.5266 260.5885 15.08864147 60010,6917.807,95.436,540.644,538.699,0.0
53886.0,STARLINK-5028,PAYLOAD,2023-10-22 15:14:50,15.08846641,0.0001366,53.2183,265.6846,77.2098,282.9047,0.00029494,4.41e-05,0.0,0 STARLINK-5028,1 53886U 22119A   23295.63531244  .00004410  00000-0  29494-3 0  9994,2 53886  53.2183 265.6846 0001366  77.2098 282.9047 15.08846641 60067,6917.86,95.437,540.67,538.78,0.0
53886.0,STARLINK-5028,PAYLOAD,2023-10-23 02:22:33,15.08835193,0.0001414,53.217,263.608,84.3863,275.729,-8.5328e-05,-1.645e-05,0.0,0 STARLINK-5028,1 53886U 22119A   23296.09899849 -.00001645  00000-0 -85328-4 0  9991,2 53886  53.2170 263.6080 0001414  84.3863 275.7290 15.08835193 60132,6917.895,95.438,540.738,538.782,0.0
53886.0,STARLINK-5028,PAYLOAD,2023-10-23 15:05:38,15.08835677,0.0001495,53.2168,261.2299,81.5997,278.5165,0.00068484,0.00010627,0.0,0 STARLINK-5028,1 53886U 22119A   23296.62892279  .00010627  00000-0  68484-3 0  9991,2 53886  53.2168 261.2299 0001495  81.5997 278.5165 15.08835677 60635,6917.894,95.438,540.793,538.724,0.0
53886.0,STARLINK-5028,PAYLOAD,2023-10-24 03:48:43,15.08855099,0.00014,53.2161,258.8506,82.305,277.8101,0.0011739,0.00018452,0.0,0 STARLINK-5028,1 53886U 22119A   23297.15884129  .00018452  00000-0  11739-2 0  9999,2 53886  53.2161 258.8506 0001400  82.3050 277.8101 15.08855099 60290,6917.834,95.437,540.668,538.731,0.0
53886.0,STARLINK-5028,PAYLOAD,2023-10-24 05:24:06,15.0885558,0.0001423,53.2162,258.5533,82.3229,277.7924,0.0010758,0.00016882,0.0,0 STARLINK-5028,1 53886U 22119A   23297.22508061  .00016882  00000-0  10758-2 0  9990,2 53886  53.2162 258.5533 0001423  82.3229 277.7924 15.08855580 60726,6917.833,95.437,540.682,538.713,0.0
53886.0,STARLINK-5028,PAYLOAD,2023-10-25 06:50:16,15.08857508,0.0001449,53.2165,253.7933,95.5302,264.5856,0.000721,0.00011211,0.0,0 STARLINK-5028,1 53886U 22119A   23298.28491704  .00011211  00000-0  72100-3 0  9993,2 53886  53.2165 253.7933 0001449  95.5302 264.5856 15.08857508 60467,6917.827,95.436,540.694,538.689,0.0
53886.0,STARLINK-5028,PAYLOAD,2023-10-26 03:30:17,15.08846481,0.0001486,53.2167,249.9276,88.259,271.8572,0.00044719,6.837e-05,0.0,0 STARLINK-5028,1 53886U 22119A   23299.14604038  .00006837  00000-0  44719-3 0  9998,2 53886  53.2167 249.9276 0001486  88.2590 271.8572 15.08846481 60593,6917.861,95.437,540.754,538.698,0.0
53886.0,STARLINK-5028,PAYLOAD,2023-10-26 06:41:04,15.08849312,0.0001466,53.2167,249.333,87.1485,272.9675,0.00055342,8.533e-05,0.0,0 STARLINK-5028,1 53886U 22119A   23299.27851995  .00008533  00000-0  55342-3 0  9997,2 53886  53.2167 249.3330 0001466  87.1485 272.9675 15.08849312 61039,6917.852,95.437,540.731,538.703,0.0
53886.0,STARLINK-5028,PAYLOAD,2023-10-27 06:31:50,15.08874316,0.0001392,53.2166,244.8718,92.8749,267.2403,0.0011836,0.00018617,0.0,0 STARLINK-5028,1 53886U 22119A   23300.27210958  .00018617  00000-0  11836-2 0  9991,2 53886  53.2166 244.8718 0001392  92.8749 267.2403 15.08874316 60769,6917.776,95.435,540.603,538.678,0.0
53886.0,STARLINK-5028,PAYLOAD,2023-10-27 12:53:23,15.08851769,0.000186,53.217,243.6819,75.3147,284.8052,0.00030523,4.575e-05,0.0,0 STARLINK-5028,1 53886U 22119A   23300.53707394  .00004575  00000-0  30523-3 0  9998,2 53886  53.2170 243.6819 0001860  75.3147 284.8052 15.08851769 61225,6917.844,95.437,540.996,538.423,0.0
53886.0,STARLINK-5028,PAYLOAD,2023-10-27 20:50:19,15.08850237,0.0003408,53.2175,242.1946,77.6111,282.5263,0.00037079,5.619e-05,0.0,0 STARLINK-5028,1 53886U 22119A   23300.86827892  .00005619  00000-0  37079-3 0  9993,2 53886  53.2175 242.1946 0003408  77.6111 282.5263 15.08850237 60857,6917.849,95.437,542.072,537.356,0.0
53886.0,STARLINK-5028,PAYLOAD,2023-10-28 00:01:05,15.0883341,0.0001717,53.2183,241.6068,105.3156,254.8026,-0.00047886,-7.9e-05,0.0,0 STARLINK-5028,1 53886U 22119A   23301.00075740 -.00007900  00000-0 -47886-3 0  9991,2 53886  53.2183 241.6068 0001717 105.3156 254.8026 15.08833410 60879,6917.901,95.438,540.953,538.578,0.0
53886.0,STARLINK-5028,PAYLOAD,2023-10-28 06:22:38,15.08836264,0.0001461,53.2172,240.4129,80.9288,279.1869,4.9968e-05,5.07e-06,0.0,0 STARLINK-5028,1 53886U 22119A   23301.26572002  .00000507  00000-0  49968-4 0  9990,2 53886  53.2172 240.4129 0001461  80.9288 279.1869 15.08836264 61339,6917.892,95.438,540.768,538.746,0.0
53886.0,STARLINK-5028,PAYLOAD,2023-10-29 03:02:39,15.0885989,0.0001395,53.2162,236.5464,81.8453,278.2697,0.0012211,0.0001921,0.0,0 STARLINK-5028,1 53886U 22119A   23302.12684172  .00019210  00000-0  12211-2 0  9998,2 53886  53.2162 236.5464 0001395  81.8453 278.2697 15.08859890 61043,6917.82,95.436,540.65,538.72,0.0
53886.0,STARLINK-5028,PAYLOAD,2023-10-29 12:34:57,15.08862576,0.0001086,53.2174,234.7626,65.2929,294.8177,0.0011241,0.00017658,0.0,0 STARLINK-5028,1 53886U 22119A   23302.52427811  .00017658  00000-0  11241-2 0  9993,2 53886  53.2174 234.7626 0001086  65.2929 294.8177 15.08862576 61522,6917.811,95.436,540.428,538.925,0.0
53886.0,STARLINK-5028,PAYLOAD,2023-10-29 18:56:30,15.08841163,0.0001708,53.2177,233.5746,79.5043,280.6141,0.00023088,3.388e-05,0.0,0 STARLINK-5028,1 53886U 22119A   23302.78924379  .00003388  00000-0  23088-3 0  9990,2 53886  53.2177 233.5746 0001708  79.5043 280.6141 15.08841163 61142,6917.877,95.437,540.923,538.56,0.0
53886.0,STARLINK-5028,PAYLOAD,2023-10-30 12:25:45,15.08836789,0.0001234,53.2175,230.3024,82.4595,277.6537,0.00022267,3.257e-05,0.0,0 STARLINK-5028,1 53886U 22119A   23303.51788588  .00003257  00000-0  22267-3 0  9995,2 53886  53.2175 230.3024 0001234  82.4595 277.6537 15.08836789 61258,6917.89,95.438,540.609,538.902,0.0
53886.0,STARLINK-5028,PAYLOAD,2023-10-31 12:16:32,15.08836026,0.0001651,53.2176,225.8411,83.1787,276.9393,0.0002866,4.276e-05,0.0,0 STARLINK-5028,1 53886U 22119A   23304.51149232  .00004276  00000-0  28660-3 0  9998,2 53886  53.2176 225.8411 0001651  83.1787 276.9393 15.08836026 61405,6917.893,95.438,540.9,538.615,0.0
53886.0,STARLINK-5028,PAYLOAD,2023-10-31 18:38:05,15.08838705,0.0001905,53.2181,224.6554,72.6239,287.4961,0.00024687,3.643e-05,0.0,0 STARLINK-5028,1 53886U 22119A   23304.77645435  .00003643  00000-0  24687-3 0  9994,2 53886  53.2181 224.6554 0001905  72.6239 287.4961 15.08838705 61867,6917.884,95.438,541.067,538.431,0.0
53886.0,STARLINK-5028,PAYLOAD,2023-11-01 00:59:38,15.08843133,0.0001616,53.2169,223.4651,78.3677,281.7496,0.00031591,4.744e-05,0.0,0 STARLINK-5028,1 53886U 22119A   23305.04141270  .00004744  00000-0  31591-3 0  9998,2 53886  53.2169 223.4651 0001616  78.3677 281.7496 15.08843133 61902,6917.871,95.437,540.854,538.618,0.0
53886.0,STARLINK-5028,PAYLOAD,2023-11-01 18:28:52,15.08848537,0.0001748,53.2179,220.194,87.0167,273.1025,0.00032771,4.933e-05,0.0,0 STARLINK-5028,1 53886U 22119A   23305.77005107  .00004933  00000-0  32771-3 0  9997,2 53886  53.2179 220.1940 0001748  87.0167 273.1025 15.08848537 61596,6917.854,95.437,540.929,538.51,0.0
53886.0,STARLINK-5028,PAYLOAD,2023-11-01 21:39:38,15.08851252,0.0001615,53.2173,219.5998,84.5561,275.5615,0.00037877,5.747e-05,0.0,0 STARLINK-5028,1 53886U 22119A   23305.90252898  .00005747  00000-0  37877-3 0  9999,2 53886  53.2173 219.5998 0001615  84.5561 275.5615 15.08851252 62037,6917.846,95.437,540.828,538.594,0.0
53886.0,STARLINK-5028,PAYLOAD,2023-11-02 18:19:39,15.088466,0.000142,53.2151,215.7333,78.2284,281.8868,0.00019259,2.779e-05,0.0,0 STARLINK-5028,1 53886U 22119A   23306.76364853  .00002779  00000-0  19259-3 0  9995,2 53886  53.2151 215.7333 0001420  78.2284 281.8868 15.08846600 61748,6917.86,95.437,540.708,538.743,0.0
53886.0,STARLINK-5028,PAYLOAD,2023-11-02 21:30:25,15.08842829,0.0001399,53.2155,215.1382,70.7327,289.3817,0.00010931,1.452e-05,0.0,0 STARLINK-5028,1 53886U 22119A   23306.89612956  .00001452  00000-0  10931-3 0  9994,2 53886  53.2155 215.1382 0001399  70.7327 289.3817 15.08842829 62185,6917.872,95.437,540.705,538.769,0.0
53886.0,STARLINK-5028,PAYLOAD,2023-11-03 03:51:57,15.08848955,0.0001446,53.2161,213.948,83.3502,276.7655,0.00023517,3.458e-05,0.0,0 STARLINK-5028,1 53886U 22119A   23307.16108723  .00003458  00000-0  23517-3 0  9999,2 53886  53.2161 213.9480 0001446  83.3502 276.7655 15.08848955 62226,6917.853,95.437,540.718,538.718,0.0
